ONEWEB-0656             
1 55817U 23029X   25256.91906110 -.00000120  00000+0 -32613-3 0  9991
2 55817  87.9280 329.5013 0002377  95.8659 264.2745 13.20771006124684
ONEWEB-0657             
1 55818U 23029Y   25256.79658901 -.00000030  00000+0 -10663-3 0  9991
2 55818  87.9282 359.9514 0002459 113.6935 246.4456 13.19726626122457
ONEWEB-0658             
1 55819U 23029Z   25256.79185243  .00000058  00000+0  11257-3 0  9994
2 55819  87.9296 359.8902 0001407 109.5601 250.5684 13.19726480122467
ONEWEB-0660             
1 55820U 23029AA  25256.74296926 -.00000224  00000+0 -63902-3 0  9993
2 55820  87.9094 344.7262 0001603  92.3787 267.7526 13.14504763123086
ONEWEB-0661             
1 55821U 23029AB  25256.77787322  .00000201  00000+0  50684-3 0  9998
2 55821  87.9089 344.7910 0001688  89.0795 271.0528 13.14503347123072
ONEWEB-0662             
1 55822U 23029AC  25256.81274968 -.00000167  00000+0 -48368-3 0  9990
2 55822  87.9082 344.7901 0001519  94.1633 265.9671 13.14504656123128
ONEWEB-0663             
1 55823U 23029AD  25256.89542033 -.00000055  00000+0 -16588-3 0  9995
2 55823  87.9296 329.5641 0001486  94.3633 265.7670 13.20845818124676
ONEWEB-0664             
1 55824U 23029AE  25256.75493497 -.00000051  00000+0 -15797-3 0  9997
2 55824  87.9277 329.6117 0002019  87.7679 272.3686 13.20771364124657
